GSAT0101 (PRN E11)      
1 37846U 11060A   21234.09235608 -.00000085  00000-0  00000-0 0  9995
2 37846  56.8728  29.4901 0002218  59.5553 300.4681  1.70475178 61117
GSAT0102 (PRN E12)      
1 37847U 11060B   21233.72868347 -.00000084  00000-0  00000-0 0  9996
2 37847  56.8732  29.4995 0001610 354.3261 188.8440  1.70475395 61115
GSAT0103 (PRN E19)      
1 38857U 12055A   21231.78699244 -.00000032  00000-0  00000-0 0  9998
2 38857  55.0581 149.9967 0003359 271.2681  88.6889  1.70473723 54964
GSAT0104 (PRN E20)      
1 38858U 12055B   21230.58445062 -.00000029  00000-0  00000-0 0  9999
2 38858  55.0582 150.0313 0001054 283.7357  76.2470  1.70474036 54947
GSAT0201 (PRN E18)      
1 40128U 14050A   21235.14224130 -.00000116  00000-0  00000-0 0  9994
2 40128  50.4467 344.1681 1644098 113.7183 264.3594  1.85519074 45682
GSAT0202 (PRN E14)      
1 40129U 14050B   21234.32634918 -.00000114  00000-0  00000-0 0  9991
2 40129  50.4767 343.2520 1641368 114.4966 263.4716  1.85519718 47832
GSAT0203 (PRN E26)      
1 40544U 15017A   21235.04732690 -.00000087  00000-0  00000-0 0  9991
2 40544  56.6669  29.5382 0002437 210.9407 149.0443  1.70474858 39219
GSAT0204 (PRN E22)      
1 40545U 15017B   21235.30006733 -.00000087  00000-0  00000-0 0  9993
2 40545  56.6735  29.5423 0002892 190.7324 169.2605  1.70475780  2262
GSAT0205 (PRN E24)      
1 40889U 15045A   21234.48124649  .00000016  00000-0  00000-0 0  9991
2 40889  55.8286 270.2187 0003442 340.2395  19.8213  1.70475377 37017
GSAT0206 (PRN E30)      
1 40890U 15045B   21232.35441274  .00000029  00000-0  00000-0 0  9997
2 40890  55.8289 270.2737 0002638 307.0705  52.9872  1.70475329 37000
GSAT0209 (PRN E09)      
1 41174U 15079A   21231.94302266 -.00000032  00000-0  00000-0 0  9996
2 41174  55.0739 149.6935 0004328 318.8608  41.1031  1.70472726 34739
GSAT0208 (PRN E08)      
1 41175U 15079B   21228.64317367 -.00000013  00000-0  00000-0 0  9997
2 41175  55.0717 149.7832 0003631 320.0093  39.9651  1.70472726 35095
GSAT0211 (PRN E02)      
1 41549U 16030A   21235.21588383  .00000012  00000-0  00000-0 0  9997
2 41549  55.9720 270.0963 0004798 294.9558  65.0644  1.70475039 32680
GSAT0210 (PRN E01)      
1 41550U 16030B   21233.74890051  .00000021  00000-0  00000-0 0  9993
2 41550  55.9716 270.1379 0004701 269.8351  90.1887  1.70475139 32651
GSAT0207 (PRN E07)      
1 41859U 16069A   21233.99537759 -.00000026  00000-0  00000-0 0  9993
2 41859  54.7334 149.8925 0004114 304.7565  55.2120  1.70472734 29396
GSAT0212 (PRN E03)      
1 41860U 16069B   21233.26220617 -.00000030  00000-0  00000-0 0  9992
2 41860  54.7312 149.9110 0003286 332.1520  27.8326  1.70472659 29632
GSAT0213 (PRN E04)      
1 41861U 16069C   21234.80099263 -.00000022  00000-0  00000-0 0  9996
2 41861  54.7337 149.8730 0003410 281.1905  78.7846  1.70472891 29524
GSAT0214 (PRN E05)      
1 41862U 16069D   21233.77487517 -.00000027  00000-0  00000-0 0  9990
2 41862  54.7317 149.8963 0002627 289.5577  70.4196  1.70472791 29635
GSAT0215 (PRN E21)      
1 43055U 17079A   21230.74594402  .00000036  00000-0  00000-0 0  9993
2 43055  55.9492 270.0562 0004111 264.0821  95.9522  1.70474227 22926
GSAT0216 (PRN E25)      
1 43056U 17079B   21235.14446545  .00000013  00000-0  00000-0 0  9992
2 43056  55.9470 269.9348 0005908 269.1361  90.8663  1.70474375 23017
GSAT0217 (PRN E27)      
1 43057U 17079C   21233.60487467  .00000022  00000-0  00000-0 0  9990
2 43057  55.9459 269.9773 0005295 277.6813  82.3366  1.70474363 22979
GSAT0218 (PRN E31)      
1 43058U 17079D   21233.82489492  .00000021  00000-0  00000-0 0  9994
2 43058  55.9459 269.9686 0006372 266.4046  93.5996  1.70474317 23001
GSAT0221 (PRN E15)      
1 43564U 18060A   21234.31010749 -.00000085  00000-0  00000-0 0  9998
2 43564  57.0516  29.2974 0002136 248.8355 111.1421  1.70475926 19167
GSAT0222 (PRN E33)      
1 43565U 18060B   21233.94336724 -.00000084  00000-0  00000-0 0  9990
2 43565  57.0534  29.3073 0001573 262.0720  97.9117  1.70475948 19209
GSAT0219 (PRN E36)      
1 43566U 18060C   21233.57736162 -.00000083  00000-0  00000-0 0  9999
2 43566  57.0539  29.3192 0001234 258.6219 101.3669  1.70475921 19174
GSAT0220 (PRN E13)      
1 43567U 18060D   21234.97041310 -.00000086  00000-0  00000-0 0  9992
2 43567  57.0547  29.2812 0001474 246.5371 113.4464  1.70475852 19184
